NORAD_CAT_ID,OBJECT_NAME,OBJECT_TYPE,EPOCH,MEAN_MOTION,ECCENTRICITY,INCLINATION,RA_OF_ASC_NODE,ARG_OF_PERICENTER,MEAN_ANOMALY,BSTAR,MEAN_MOTION_DOT,MEAN_MOTION_DDOT,TLE_LINE0,TLE_LINE1,TLE_LINE2,SEMIMAJOR_AXIS,PERIOD,APOGEE,PERIGEE,DECAYED
53748.0,STARLINK-4669,PAYLOAD,2022-12-23 15:43:16,15.08826796,0.0002725,53.218,125.7455,27.8883,332.2255,-1.202e-05,-4.8e-06,0.0,0 STARLINK-4669,1 53748U 22107BA  22357.65505233 -.00000480  00000-0 -12020-4 0  9990,2 53748  53.2180 125.7455 0002725  27.8883 332.2255 15.08826796 17652,6917.920999999999,95.438,541.6709999999998,537.901,0.0
53748.0,STARLINK-4669,PAYLOAD,2022-12-24 01:15:36,15.08812768,0.0002281,53.2176,123.961,32.4532,327.66,-8.0253e-05,-1.564e-05,0.0,0 STARLINK-4669,1 53748U 22107BA  22358.05250902 -.00001564  00000-0 -80253-4 0  9992,2 53748  53.2176 123.9610 0002281  32.4532 327.6600 15.08812768 16936,6917.964,95.439,541.4069999999998,538.251,0.0
53748.0,STARLINK-4669,PAYLOAD,2022-12-24 10:47:55,15.08825176,0.0002316,53.2177,122.1763,31.8022,328.311,-0.00011496,-2.117e-05,0.0,0 STARLINK-4669,1 53748U 22107BA  22358.44994833 -.00002117  00000-0 -11496-3 0  9990,2 53748  53.2177 122.1763 0002316  31.8022 328.3110 15.08825176 16990,6917.926,95.438,541.393,538.189,0.0
53748.0,STARLINK-4669,PAYLOAD,2022-12-24 17:09:27,15.08829849,0.0002357,53.2178,120.987,33.7859,326.3283,-6.5484e-05,-1.33e-05,0.0,0 STARLINK-4669,1 53748U 22107BA  22358.71490622 -.00001330  00000-0 -65484-4 0  9990,2 53748  53.2178 120.9870 0002357  33.7859 326.3283 15.08829849 17812,6917.911,95.438,541.4069999999998,538.146,0.0
53748.0,STARLINK-4669,PAYLOAD,2022-12-25 01:06:23,15.08830811,0.0002376,53.2179,119.5004,31.7337,328.3798,4.8862e-05,4.89e-06,0.0,0 STARLINK-4669,1 53748U 22107BA  22359.04610404  .00000489  00000-0  48862-4 0  9992,2 53748  53.2179 119.5004 0002376  31.7337 328.3798 15.08830811 17089,6917.908,95.438,541.4169999999998,538.13,0.0
53748.0,STARLINK-4669,PAYLOAD,2022-12-25 20:11:00,15.08841617,0.0002445,53.218,115.9317,30.9835,329.1301,0.00018145,2.601e-05,0.0,0 STARLINK-4669,1 53748U 22107BA  22359.84097568  .00002601  00000-0  18145-3 0  9998,2 53748  53.2180 115.9317 0002445  30.9835 329.1301 15.08841617 17208,6917.875,95.437,541.432,538.049,0.0
53748.0,STARLINK-4669,PAYLOAD,2022-12-26 00:57:09,15.0883682,0.0002418,53.218,115.0396,31.8802,328.2336,0.00026256,3.893e-05,0.0,0 STARLINK-4669,1 53748U 22107BA  22360.03969655  .00003893  00000-0  26256-3 0  9992,2 53748  53.2180 115.0396 0002418  31.8802 328.2336 15.08836820 18018,6917.89,95.438,541.428,538.082,0.0
53748.0,STARLINK-4669,PAYLOAD,2022-12-26 16:51:01,15.08838327,0.0002512,53.2182,112.0658,32.1427,327.9718,0.00010629,1.404e-05,0.0,0 STARLINK-4669,1 53748U 22107BA  22360.70210245  .00001404  00000-0  10629-3 0  9993,2 53748  53.2182 112.0658 0002512  32.1427 327.9718 15.08838327 17338,6917.886,95.438,541.488,538.013,0.0
53748.0,STARLINK-4669,PAYLOAD,2022-12-26 20:01:48,15.08837604,0.0002513,53.2182,111.4712,32.2944,327.8201,8.3837e-05,1.046e-05,0.0,0 STARLINK-4669,1 53748U 22107BA  22360.83458407  .00001046  00000-0  83837-4 0  9995,2 53748  53.2182 111.4712 0002513  32.2944 327.8201 15.08837604 18130,6917.888000000001,95.438,541.491,538.014,0.0
53748.0,STARLINK-4669,PAYLOAD,2022-12-27 13:31:01,15.088555800000002,0.0002666,53.2188,108.2032,32.5466,327.569,7.4545e-05,8.99e-06,0.0,0 STARLINK-4669,1 53748U 22107BA  22361.56320847  .00000899  00000-0  74545-4 0  9993,2 53748  53.2188 108.2032 0002666  32.5466 327.5690 15.08855580 17463,6917.833000000001,95.437,541.5419999999998,537.8530000000002,0.0
53748.0,STARLINK-4669,PAYLOAD,2022-12-27 16:41:47,15.08856904,0.0002807,53.2187,107.6086,31.9242,328.19199999999995,5.7842e-05,6.33e-06,0.0,0 STARLINK-4669,1 53748U 22107BA  22361.69568724  .00000633  00000-0  57842-4 0  9992,2 53748  53.2187 107.6086 0002807  31.9242 328.1920 15.08856904 18269,6917.829000000002,95.436,541.636,537.752,0.0
53748.0,STARLINK-4669,PAYLOAD,2022-12-27 19:52:33,15.08860835,0.0002531,53.218,107.0112,33.8944,326.221,6.9969e-05,8.26e-06,0.0,0 STARLINK-4669,1 53748U 22107BA  22361.82816203  .00000826  00000-0  69969-4 0  9992,2 53748  53.2180 107.0112 0002531  33.8944 326.2210 15.08860835 18281,6917.816999999999,95.436,541.433,537.931,0.0
53748.0,STARLINK-4669,PAYLOAD,2022-12-28 14:57:10,15.0885301,0.0002735,53.2185,103.4431,32.7351,327.381,2.395300000000001e-05,9.3e-07,0.0,0 STARLINK-4669,1 53748U 22107BA  22362.62304092  .00000093  00000-0  23953-4 0  9998,2 53748  53.2185 103.4431 0002735  32.7351 327.3810 15.08853010 17628,6917.840999999999,95.437,541.5980000000002,537.814,0.0
53748.0,STARLINK-4669,PAYLOAD,2022-12-29 00:29:30,15.08837432,0.0003444999999999,53.2198,101.6619,24.6765,335.4391,-0.00011089,-2.053e-05,0.0,0 STARLINK-4669,1 53748U 22107BA  22363.02049443 -.00002053  00000-0 -11089-3 0  9995,2 53748  53.2198 101.6619 0003445  24.6765 335.4391 15.08837432 17688,6917.888000000001,95.438,542.136,537.37,0.0
53748.0,STARLINK-4669,PAYLOAD,2022-12-29 13:12:36,15.08830625,0.0002522,53.2195,99.2781,44.0455,316.0738,-0.00022154,-3.812e-05,0.0,0 STARLINK-4669,1 53748U 22107BA  22363.55042397 -.00003812  00000-0 -22154-3 0  9993,2 53748  53.2195  99.2781 0002522  44.0455 316.0738 15.08830625 17760,6917.909000000002,95.438,541.519,538.029,0.0
53748.0,STARLINK-4669,PAYLOAD,2022-12-29 17:58:46,15.08823225,0.0002429,53.2184,98.388,31.0606,329.0529,-0.00032916,-5.521e-05,0.0,0 STARLINK-4669,1 53748U 22107BA  22363.74915408 -.00005521  00000-0 -32916-3 0  9992,2 53748  53.2184  98.3880 0002429  31.0606 329.0529 15.08823225 17791,6917.932,95.439,541.477,538.116,0.0
53748.0,STARLINK-4669,PAYLOAD,2022-12-30 13:03:21,15.08848595,0.000224,53.2178,94.8194,25.4332,334.677,0.00014756,2.061e-05,0.0,0 STARLINK-4669,1 53748U 22107BA  22364.54400260  .00002061  00000-0  14756-3 0  9992,2 53748  53.2178  94.8194 0002240  25.4332 334.6770 15.08848595 17918,6917.854,95.437,541.269,538.17,0.0
53748.0,STARLINK-4669,PAYLOAD,2022-12-30 22:35:39,15.08858099,0.0002346,53.2182,93.0354,26.54,333.5712,0.00022354,3.273e-05,0.0,0 STARLINK-4669,1 53748U 22107BA  22364.94143258  .00003273  00000-0  22354-3 0  9996,2 53748  53.2182  93.0354 0002346  26.5400 333.5712 15.08858099 17977,6917.825,95.436,541.313,538.067,0.0
53748.0,STARLINK-4669,PAYLOAD,2022-12-31 12:54:08,15.08845298,0.0002542,53.2184,90.3596,25.1015,335.0101,0.00033483,5.045e-05,0.0,0 STARLINK-4669,1 53748U 22107BA  22365.53759597  .00005045  00000-0  33483-3 0  9995,2 53748  53.2184  90.3596 0002542  25.1015 335.0101 15.08845298 18069,6917.864000000001,95.437,541.488,537.971,0.0
53748.0,STARLINK-4669,PAYLOAD,2022-12-31 17:40:18,15.08841698,0.0002583999999999,53.2177,89.4684,22.1791,337.9313,0.00027587,4.105e-05,0.0,0 STARLINK-4669,1 53748U 22107BA  22365.73631986  .00004105  00000-0  27587-3 0  9992,2 53748  53.2177  89.4684 0002584  22.1791 337.9313 15.08841698 18877,6917.875,95.437,541.528,537.953,0.0
53748.0,STARLINK-4669,PAYLOAD,2023-01-01 06:23:25,15.08819921,0.0002522,53.2186,87.0884,19.741,340.3679,-0.00013442,-2.426e-05,0.0,0 STARLINK-4669,1 53748U 22107BA  23001.26626723 -.00002426  00000-0 -13442-3 0  9992,2 53748  53.2186  87.0884 0002522  19.7410 340.3679 15.08819921 18175,6917.941999999999,95.439,541.5509999999998,538.062,0.0
53748.0,STARLINK-4669,PAYLOAD,2023-01-01 12:44:58,15.08819883,0.0002599,53.219,85.899,18.7456,341.3631,-0.00028209,-4.773e-05,0.0,0 STARLINK-4669,1 53748U 22107BA  23001.53123386 -.00004773  00000-0 -28209-3 0  9993,2 53748  53.2190  85.8990 0002599  18.7456 341.3631 15.08819883 18993,6917.941999999999,95.439,541.605,538.009,0.0
53748.0,STARLINK-4669,PAYLOAD,2023-01-01 23:52:40,15.0883551,0.0002637,53.2179,83.8155,22.0599,338.0506,-0.00033659,-5.641e-05,0.0,0 STARLINK-4669,1 53748U 22107BA  23001.99490742 -.00005641  00000-0 -33659-3 0  9996,2 53748  53.2179  83.8155 0002637  22.0599 338.0506 15.08835510 18281,6917.894,95.438,541.5830000000002,537.935,0.0
53748.0,STARLINK-4669,PAYLOAD,2023-01-02 09:24:58,15.08837285,0.0002672,53.2189,82.0339,25.5806,334.5318,-0.00011045,-2.046e-05,0.0,0 STARLINK-4669,1 53748U 22107BA  23002.39234275 -.00002046  00000-0 -11045-3 0  9999,2 53748  53.2189  82.0339 0002672  25.5806 334.5318 15.08837285 19122,6917.889,95.438,541.602,537.905,0.0
53748.0,STARLINK-4669,PAYLOAD,2023-01-02 22:08:02,15.08844931,0.0002793,53.2188,79.6547,24.9663,335.1464,6.2186e-05,7.01e-06,0.0,0 STARLINK-4669,1 53748U 22107BA  23002.92225451  .00000701  00000-0  62186-4 0  9991,2 53748  53.2188  79.6547 0002793  24.9663 335.1464 15.08844931 18429,6917.865,95.437,541.6619999999998,537.798,0.0
53748.0,STARLINK-4669,PAYLOAD,2023-01-03 06:04:59,15.08826978,0.0002828,53.2188,78.168,29.5608,330.5543,5.5959e-05,6.02e-06,0.0,0 STARLINK-4669,1 53748U 22107BA  23003.25347018  .00000602  00000-0  55959-4 0  9992,2 53748  53.2188  78.1680 0002828  29.5608 330.5543 15.08826978 18473,6917.92,95.438,541.742,537.8290000000002,0.0
53748.0,STARLINK-4669,PAYLOAD,2023-01-04 04:20:23,15.08846307,0.0002723,53.2179,74.0052,25.7396,334.3731,0.00030119,4.509e-05,0.0,0 STARLINK-4669,1 53748U 22107BA  23004.18082562  .00004509  00000-0  30119-3 0  9995,2 53748  53.2179  74.0052 0002723  25.7396 334.3731 15.08846307 18612,6917.861,95.437,541.61,537.842,0.0
53748.0,STARLINK-4669,PAYLOAD,2023-01-04 10:41:55,15.08855595,0.0002753999999999,53.218,72.816,26.2778,333.8353,0.00041635,6.347e-05,0.0,0 STARLINK-4669,1 53748U 22107BA  23004.44578133  .00006347  00000-0  41635-3 0  9995,2 53748  53.2180  72.8160 0002754  26.2778 333.8353 15.08855595 19438,6917.833000000001,95.437,541.6030000000002,537.793,0.0
53748.0,STARLINK-4669,PAYLOAD,2023-01-05 05:46:32,15.08865214,0.0002917,53.2181,69.2484,22.8618,337.2503,0.00046438,7.115e-05,0.0,0 STARLINK-4669,1 53748U 22107BA  23005.24065118  .00007115  00000-0  46438-3 0  9998,2 53748  53.2181  69.2484 0002917  22.8618 337.2503 15.08865214 18774,6917.803000000001,95.436,541.686,537.65,0.0
